ONEWEB-0668             
1 56711U 23068B   25079.67877969  .00000087  00000+0  19288-3 0  9996
2 56711  87.9071 319.1572 0001132  80.9948 279.1311 13.16595450 92102
ONEWEB-0676             
1 56712U 23068C   25079.73498956  .00000111  00000+0  25622-3 0  9996
2 56712  87.9079 319.1715 0002102  92.1747 267.9625 13.16594597 92733
ONEWEB-0677             
1 56713U 23068D   25079.85809017  .00000059  00000+0  11360-3 0  9999
2 56713  87.9324   4.6723 0001801  88.3131 271.8208 13.20774297 89965
ONEWEB-0678             
1 56714U 23068E   25079.78224140 -.00000414  00000+0 -11336-2 0  9999
2 56714  87.9135 349.5026 0002097  73.9017 286.2344 13.15548187 89674
ONEWEB-0679             
1 56715U 23068F   25079.70409991 -.00000015  00000+0 -73813-4 0  9998
2 56715  87.9072 319.1731 0001473 100.9982 259.1314 13.16591695 92752
ONEWEB-0680             
1 56716U 23068G   25079.75148631  .00000032  00000+0  46034-4 0  9997
2 56716  87.9308 334.3917 0001056  83.9784 276.1470 13.21826919 91192
ONEWEB-0681             
1 56717U 23068H   25079.76172835  .00000019  00000+0  15149-4 0  9990
2 56717  87.9328 334.3976 0002317 105.5814 254.5576 13.21828374 91189
ONEWEB-0682             
1 56718U 23068J   25079.80839531  .00000250  00000+0  62948-3 0  9994
2 56718  87.9134 349.5308 0001272  84.0333 276.0942 13.15550373 89848
